[
{"no_bedroom": "9", "postcode": "3128", "address": "7/16 Barcelona Street", "state": "VIC", "property_type": "House", "suburb": "Box Hill", "no_carspace": "-", "amenities": [], "rent": "150", "no_bathroom": "2"},
{"no_bedroom": "4", "postcode": "3129", "address": "3/58 Belgravia Avenue", "state": "VIC", "property_type": "Townhouse", "suburb": "Mont Albert North", "no_carspace": "2", "amenities": ["Air Conditioning", "Close to Shops", "Close to Transport", "Internal Laundry", "Alarm", "Gas Heating", "Gas Hot Water"], "rent": "950", "no_bathroom": "3"},
{"no_bedroom": "4", "postcode": "3127", "address": "1 Sydenham Lane", "state": "VIC", "property_type": "House", "suburb": "Surrey Hills", "no_carspace": "2", "amenities": [], "rent": "1150", "no_bathroom": "3"},
{"no_bedroom": "4", "postcode": "3127", "address": "2 Griffin Close", "state": "VIC", "property_type": "", "suburb": "Surrey Hills", "no_carspace": "4", "amenities": [], "rent": "650", "no_bathroom": "2"},
{"no_bedroom": "5", "postcode": "3129", "address": "61 Severn Street", "state": "VIC", "property_type": "", "suburb": "Box Hill North", "no_carspace": "2", "amenities": [], "rent": "900", "no_bathroom": "3"},
{"no_bedroom": "4", "postcode": "3127", "address": "2 Oak Street", "state": "VIC", "property_type": "", "suburb": "Surrey Hills", "no_carspace": "2", "amenities": ["Alarm System", "Dishwasher", "Built-In Wardrobes", " Deck", " Courtyard", " Remote Garage", " Ducted Heating", " Evaporative Cooling"], "rent": "1", "no_bathroom": "2"},
{"no_bedroom": "4", "postcode": "3128", "address": "2/28 Pendle Street", "state": "VIC", "property_type": "Apartment / Unit / Flat", "suburb": "Box Hill", "no_carspace": "2", "amenities": ["Air Conditioning", "Built-In Wardrobes", "Close to Schools", "Close to Transport", "Security Alarm", "Secure Parking", "Polished Timber Floor"], "rent": "850", "no_bathroom": "3"},
{"no_bedroom": "4", "postcode": "3129", "address": "49 Melrose Street", "state": "VIC", "property_type": "House", "suburb": "Mont Albert North", "no_carspace": "1", "amenities": [], "rent": "750", "no_bathroom": "2"},
{"no_bedroom": "4", "postcode": "3129", "address": "7 Kinsale Crescent", "state": "VIC", "property_type": "House", "suburb": "Mont Albert North", "no_carspace": "2", "amenities": [], "rent": "800", "no_bathroom": "2"},
{"no_bedroom": "4", "postcode": "3129", "address": "4/58 Belgravia Avenue", "state": "VIC", "property_type": "Townhouse", "suburb": "Mont Albert North", "no_carspace": "2", "amenities": ["Air Conditioning", "Close to Shops", "Close to Transport", "Internal Laundry", "Alarm", "Gas Heating", "Gas Hot Water"], "rent": "800", "no_bathroom": "3"},
{"no_bedroom": "4", "postcode": "3127", "address": "8 Balmoral Crescent", "state": "VIC", "property_type": "House", "suburb": "Surrey Hills", "no_carspace": "5", "amenities": ["Air Conditioning", "Built in wardrobes", "Dishwasher"], "rent": "850", "no_bathroom": "2"},
{"no_bedroom": "4", "postcode": "3130", "address": "23 Rishon Avenue", "state": "VIC", "property_type": "House", "suburb": "Blackburn South", "no_carspace": "3", "amenities": [], "rent": "500", "no_bathroom": "2"},
{"no_bedroom": "4", "postcode": "3130", "address": "1/408 Middleborough Road", "state": "VIC", "property_type": "House", "suburb": "Blackburn", "no_carspace": "1", "amenities": ["Close to Schools", "Close to Shops", "Close to Transport", "Garden", "Formal Lounge"], "rent": "560", "no_bathroom": "2"},
{"no_bedroom": "4", "postcode": "3130", "address": "26 Ronley Street", "state": "VIC", "property_type": "House", "suburb": "Blackburn", "no_carspace": "2", "amenities": ["Air Conditioning", "Built in wardrobes", "Dishwasher"], "rent": "600", "no_bathroom": "2"},
{"no_bedroom": "4", "postcode": "3127", "address": "2/485 Elgar Road", "state": "VIC", "property_type": "Apartment / Unit / Flat", "suburb": "Mont Albert", "no_carspace": "2", "amenities": ["Air Conditioning", "Built-In Wardrobes", "Remote Garage", "Dishwasher", "Floorboards", "Study", "Ducted Cooling", "Ducted Heating"], "rent": "595", "no_bathroom": "2"},
{"no_bedroom": "4", "postcode": "3128", "address": "2/45 Stott Street", "state": "VIC", "property_type": "Apartment / Unit / Flat", "suburb": "Box Hill South", "no_carspace": "2", "amenities": ["Car Accom: Double Garage", "Heating: Gas Ducted Heating", "Cooling: Evaporative Cooling", "Ensuites 1", "Date Available Now"], "rent": "690", "no_bathroom": "2"},
{"no_bedroom": "4", "postcode": "3129", "address": "26 Boxleigh Grove", "state": "VIC", "property_type": "House", "suburb": "Box Hill North", "no_carspace": "1", "amenities": ["Ensuite", "Split System AirCon", "Built In Robes", "Ducted Heating"], "rent": "435", "no_bathroom": "2"},
{"no_bedroom": "4", "postcode": "3129", "address": "3 Vista Court", "state": "VIC", "property_type": "House", "suburb": "Box Hill North", "no_carspace": "2", "amenities": [], "rent": "600", "no_bathroom": "2"},
{"no_bedroom": "4", "postcode": "3129", "address": "6 Goddard Court", "state": "VIC", "property_type": "House", "suburb": "Mont Albert North", "no_carspace": "2", "amenities": [], "rent": "580", "no_bathroom": "2"},
{"no_bedroom": "4", "postcode": "3130", "address": "1B Barns Street", "state": "VIC", "property_type": "House", "suburb": "Blackburn South", "no_carspace": "2", "amenities": [], "rent": "630", "no_bathroom": "2"},
{"no_bedroom": "4", "postcode": "3128", "address": "2/7 Moritz Street", "state": "VIC", "property_type": "Townhouse", "suburb": "Box Hill South", "no_carspace": "2", "amenities": ["Courtyard", "Fully Fenced", "Dishwasher", "Remote Garage", "Secure Parking", "Shed", "Built In Robes", "Floorboards", "Split System AirCon"], "rent": "650", "no_bathroom": "3"},
{"no_bedroom": "5", "postcode": "3130", "address": "45 The Ridge", "state": "VIC", "property_type": "House", "suburb": "Blackburn", "no_carspace": "2", "amenities": ["Ensuite", "Floorboards", "Built In Robes", "Dishwasher", "Ducted Heating", "Rumpus Room"], "rent": "650", "no_bathroom": "2"},
{"no_bedroom": "4", "postcode": "3130", "address": "13A Donald Street", "state": "VIC", "property_type": "House", "suburb": "Blackburn South", "no_carspace": "1", "amenities": [], "rent": "650", "no_bathroom": "2"},
{"no_bedroom": "4", "postcode": "3129", "address": "2/632 Elgar Road", "state": "VIC", "property_type": "Townhouse", "suburb": "Box Hill North", "no_carspace": "2", "amenities": ["Dishwasher", "Built in wardrobes", "Floorboards"], "rent": "650", "no_bathroom": "2"},
{"no_bedroom": "5", "postcode": "3130", "address": "29 Jenner Street", "state": "VIC", "property_type": "House", "suburb": "Blackburn South", "no_carspace": "1", "amenities": ["Air Conditioning", "Built-In Wardrobes", "Close to Schools", "Close to Shops", "Close to Transport", "Garden", "Polished Timber Floor", "Formal Lounge", "Separate Dining"], "rent": "660", "no_bathroom": "2"},
{"no_bedroom": "5", "postcode": "3130", "address": "5 Rosslyn Street", "state": "VIC", "property_type": "House", "suburb": "Blackburn South", "no_carspace": "2", "amenities": ["Air Conditioning", "Heating", "Close to Shops", "Close to Transport", "Internal Laundry", "Pets Allowed", "Balcony", "Gas Hot Water"], "rent": "670", "no_bathroom": "3"},
{"no_bedroom": "4", "postcode": "3130", "address": "2/18 Jenner Street", "state": "VIC", "property_type": "House", "suburb": "Blackburn South", "no_carspace": "4", "amenities": ["Ensuite", "Gas", "Fully fenced", "Balcony / Deck", "Air conditioning"], "rent": "720", "no_bathroom": "3"},
{"no_bedroom": "4", "postcode": "3129", "address": "11 Francesca Street", "state": "VIC", "property_type": "House", "suburb": "Mont Albert North", "no_carspace": "-", "amenities": [], "rent": "750", "no_bathroom": "2"},
{"no_bedroom": "4", "postcode": "3127", "address": "21 Oak Street", "state": "VIC", "property_type": "House", "suburb": "Surrey Hills", "no_carspace": "3", "amenities": ["Swimming Pool", "Balcony / Deck", "Dishwasher", "Built in wardrobes"], "rent": "900", "no_bathroom": "2"},
{"no_bedroom": "4", "postcode": "3127", "address": "12 Lambourne Street", "state": "VIC", "property_type": "House", "suburb": "Surrey Hills", "no_carspace": "-", "amenities": [], "rent": "1000", "no_bathroom": "3"},
{"no_bedroom": "4", "postcode": "3130", "address": "2 Donald Street", "state": "VIC", "property_type": "House", "suburb": "Blackburn South", "no_carspace": "2", "amenities": ["Close to Shops", "Close to Transport", "Internal Laundry", "GDH Heating"], "rent": "450", "no_bathroom": "2"},
{"no_bedroom": "4", "postcode": "3129", "address": "160 Dorking Road", "state": "VIC", "property_type": "House", "suburb": "Box Hill North", "no_carspace": "2", "amenities": [], "rent": "480", "no_bathroom": "2"},
{"no_bedroom": "4", "postcode": "3127", "address": "2B Bentley Street", "state": "VIC", "property_type": "House", "suburb": "Surrey Hills", "no_carspace": "2", "amenities": [], "rent": "730", "no_bathroom": "2"}
]